[Satellite]
VERSION=1.1
NAME=DANDE
NICKNAME=DANDE
TLE1=1 39267U 13055C   18020.91141828  .00002044  00000-0  59855-4 0  9992
TLE2=2 39267  81.0117 163.7234 0707660   5.1136 355.6780 14.18471881219543
